ONEWEB-0709             
1 55172U 23004AJ  24159.04936635 -.00000431  00000+0 -12516-2 0  9992
2 55172  87.8959 168.3735 0002583  66.6279 293.5120 13.11417703 68863
ONEWEB-0710             
1 55173U 23004AK  24159.35748024  .00000032  00000+0  49430-4 0  9992
2 55173  87.9162 153.1629 0001963  83.5940 276.5415 13.17648009 70153
ONEWEB-0711             
1 55174U 23004AL  24159.40203911  .00000584  00000+0  16126-2 0  9996
2 55174  87.8962 168.2733 0001104  96.8879 263.2374 13.11417892 68870
ONEWEB-0713             
1 55175U 23004AM  24159.03919551 -.00000161  00000+0 -49044-3 0  9999
2 55175  87.8958 168.3531 0001623  92.7131 267.4182 13.11413386 68816
ONEWEB-0715             
1 55176U 23004AN  24158.72890228  .00000251  00000+0  67116-3 0  9992
2 55176  87.8959 168.4147 0001883  85.7411 274.3932 13.11417733 68813
ONEWEB-0716             
1 55177U 23004AP  24159.35113280  .00000090  00000+0  19901-3 0  9999
2 55177  87.9162 153.1555 0002172  92.9260 267.2121 13.17650967 70154
ONEWEB-0717             
1 55178U 23004AQ  24158.49843577  .00000057  00000+0  11472-3 0  9991
2 55178  87.9160 153.2890 0001239  67.6475 292.4788 13.17646657 70099
ONEWEB-0719             
1 55179U 23004AR  24159.34481862 -.00000320  00000+0 -85855-3 0  9993
2 55179  87.9159 153.1076 0001991  97.6479 262.4879 13.17649798 70159
ONEWEB-0530             
1 55796U 23029A   24158.71934418  .00000003  00000+0 -24228-4 0  9990
2 55796  87.9223  61.8030 0001319  79.7202 280.4080 13.20770341 63407
ONEWEB-0534             
1 55797U 23029B   24158.47944498  .00000022  00000+0  21575-4 0  9995
2 55797  87.9223  61.8578 0001988  85.6088 274.5272 13.20770602 63378
ONEWEB-0556             
1 55798U 23029C   24158.71302410 -.00000036  00000+0 -12054-3 0  9993
2 55798  87.9222  61.8047 0001729 108.4629 251.6692 13.20769797 63406
ONEWEB-0562             
1 55799U 23029D   24158.47312128  .00000062  00000+0  12149-3 0  9996
2 55799  87.9223  61.8429 0001046 106.8925 253.2323 13.20769883 63376
ONEWEB-0563             
1 55800U 23029E   24159.45164804  .00000109  00000+0  23520-3 0  9991
2 55800  87.9223  61.6631 0001914  89.6953 270.4399 13.20769700 63490
ONEWEB-0564             
1 55801U 23029F   24158.46051857  .00000082  00000+0  16956-3 0  9990
2 55801  87.9226  61.8455 0001491  75.5213 284.6086 13.20768445 63375
ONEWEB-0638             
1 55802U 23029G   24158.76703618  .00000228  00000+0  57927-3 0  9998
2 55802  87.8972  77.0707 0002117  98.2062 261.9308 13.14501808 62120
ONEWEB-0639             
1 55803U 23029H   24159.51492263  .00000085  00000+0  18056-3 0  9995
2 55803  87.9154  92.1718 0003508  84.5767 275.5765 13.19726003 61341
ONEWEB-0640             
1 55804U 23029J   24159.30936663  .00000262  00000+0  67270-3 0  9999
2 55804  87.8970  76.9588 0002387  99.8776 260.2623 13.14501657 62217
ONEWEB-0641             
1 55805U 23029K   24159.51018387  .00000066  00000+0  13293-3 0  9995
2 55805  87.9151  92.1554 0002382  80.8419 279.2984 13.19723904 61352
ONEWEB-0642             
1 55806U 23029L   24159.35381719  .00000010  00000+0 -62800-5 0  9990
2 55806  87.9154  92.2085 0003185  78.7331 281.4160 13.19725421 61321
ONEWEB-0643             
1 55807U 23029M   24158.51806434  .00000106  00000+0  25029-3 0  9999
2 55807  87.8970  77.0932 0002877  66.6803 293.4630 13.14502141 62082
ONEWEB-0644             
1 55808U 23029N   24159.57650975 -.00000015  00000+0 -70030-4 0  9998
2 55808  87.9156  92.1602 0002742  78.0006 282.1434 13.19723661 61358
ONEWEB-0645             
1 55809U 23029P   24159.57257469 -.00000029  00000+0 -10495-3 0  9993
2 55809  87.9155  92.1623 0002591  88.1925 271.9505 13.19724390 61350
ONEWEB-0646             
1 55810U 23029Q   24159.37511994  .00000105  00000+0  22899-3 0  9993
2 55810  87.9155  92.2011 0002331  76.9531 283.1862 13.19723077 61312
ONEWEB-0648             
1 55811U 23029R   24159.32364542 -.00000039  00000+0 -14092-3 0  9998
2 55811  87.8975  76.9036 0003131  85.2989 274.8499 13.14501799 62197
ONEWEB-0649             
1 55812U 23029S   24159.56544680 -.00000350  00000+0 -90640-3 0  9997
2 55812  87.9153  92.1593 0002577  82.3096 277.8330 13.19725168 61374
ONEWEB-0650             
1 55813U 23029T   24159.56073091 -.00000023  00000+0 -88900-4 0  9995
2 55813  87.9155  92.1617 0002413  77.3213 282.8189 13.19724196 61343
ONEWEB-0652             
1 55814U 23029U   24158.46732338  .00000142  00000+0  34793-3 0  9990
2 55814  87.8973  77.0863 0001856  78.5995 281.5344 13.14503240 62054
ONEWEB-0653             
1 55815U 23029V   24159.51710155  .00000168  00000+0  41965-3 0  9998
2 55815  87.8974  76.8568 0001891  89.0376 271.0970 13.14502616 62228
ONEWEB-0654             
1 55816U 23029W   24159.51235290  .00000069  00000+0  15156-3 0  9994
2 55816  87.8971  76.8682 0001525  83.4165 276.7138 13.14502760 62241
ONEWEB-0656             
1 55817U 23029X   24158.45420803  .00000103  00000+0  22182-3 0  9999
2 55817  87.9224  61.7890 0001388  62.5723 297.5551 13.20767875 63375
ONEWEB-0657             
1 55818U 23029Y   24159.55597695  .00000044  00000+0  77075-4 0  9992
2 55818  87.9156  92.1679 0001862  53.9357 306.1948 13.19723591 61355
ONEWEB-0658             
1 55819U 23029Z   24159.55125527  .00000174  00000+0  40284-3 0  9999
2 55819  87.9158  92.1041 0002594  79.9596 280.1829 13.19725084 61366
ONEWEB-0660             
1 55820U 23029AA  24159.33791445 -.00000188  00000+0 -54061-3 0  9990
2 55820  87.8971  76.8776 0002377  90.0218 270.1184 13.14502862 62207
ONEWEB-0661             
1 55821U 23029AB  24158.76385666  .00000264  00000+0  67736-3 0  9997
2 55821  87.8972  77.0588 0002210  92.5925 267.5458 13.14501058 62111
ONEWEB-0662             
1 55822U 23029AC  24159.33156487 -.00000121  00000+0 -35994-3 0  9994
2 55822  87.8976  76.9526 0002332  85.3952 274.7444 13.14503573 62233
ONEWEB-0663             
1 55823U 23029AD  24158.44732673  .00000120  00000+0  26321-3 0  9994
2 55823  87.9224  61.8512 0002299  86.8387 273.3009 13.20786828 63369
ONEWEB-0664             
1 55824U 23029AE  24158.44156255  .00000116  00000+0  25446-3 0  9993
2 55824  87.9225  61.8655 0001780  95.2258 264.9079 13.20770034 63369
ONEWEB-0665             
1 55825U 23029AF  24158.53233678  .00000238  00000+0  60776-3 0  9999
2 55825  87.8969  77.0799 0002272  87.3260 272.8130 13.14502251 62108
ONEWEB-0666             
1 55826U 23029AG  24158.43526715  .00000193  00000+0  44165-3 0  9990
2 55826  87.9224  61.8576 0001532  71.6509 288.4791 13.20769459 63376
ONEWEB-0667             
1 55827U 23029AH  24158.42894544  .00000036  00000+0  56194-4 0  9990
2 55827  87.9221  61.7922 0002013  89.7904 270.3460 13.20770164 63369
ONEWEB-0669             
1 55828U 23029AJ  24158.42419705  .00000077  00000+0  15647-3 0  9995
2 55828  87.9222  61.8308 0001148  90.0867 270.0398 13.20774404 63369
ONEWEB-0670             
1 55829U 23029AK  24158.51013277 -.00000022  00000+0 -93314-4 0  9990
2 55829  87.8974  77.0896 0002120  95.7794 264.3577 13.14501775 62126
ONEWEB-0671             
1 55830U 23029AL  24159.54652006  .00000058  00000+0  11320-3 0  9998
2 55830  87.9155  92.1681 0002209  89.2194 270.9192 13.19725887 62033
ONEWEB-0672             
1 55831U 23029AM  24158.49522540 -.00000018  00000+0 -77017-4 0  9995
2 55831  87.9223  61.8004 0001707  71.7601 288.3718 13.20769875 63375
ONEWEB-0673             
1 55832U 23029AN  24159.37118849  .00000035  00000+0  56119-4 0  9994
2 55832  87.9153  92.1702 0002256  86.7274 273.4116 13.19724807 61326
ONEWEB-0674             
1 55833U 23029AP  24159.31571209  .00000072  00000+0  15854-3 0  9993
2 55833  87.8971  76.9352 0001972  96.8557 263.2797 13.14502434 62211
ONEWEB-0675             
1 55834U 23029AQ  24159.31116128  .00000095  00000+0  20476-3 0  9990
2 55834  87.9155  92.2148 0002144  68.6100 291.5262 13.19725926 61335
ONEWEB-0720             
1 55835U 23029AR  24159.37908359  .00000142  00000+0  32162-3 0  9990
2 55835  87.9159  92.2020 0002612  83.9862 276.1568 13.19723762 61260
ONEWEB-0537             
1 56046U 23043A   24159.06020670  .00000130  00000+0  30524-3 0  9995
2 56046  87.9107  16.1051 0001706  73.9514 286.1804 13.16593223 61575
ONEWEB-0538             
1 56047U 23043B   24159.35786301  .00000085  00000+0  18947-3 0  9992
2 56047  87.9107  16.0653 0002057  78.9882 281.1480 13.16593161 61628
ONEWEB-0546             
1 56048U 23043C   24159.34519270  .00000065  00000+0  13610-3 0  9991
2 56048  87.9107  16.0314 0001171  60.0092 300.1155 13.16592802 61615
ONEWEB-0547             
1 56049U 23043D   24158.40812833  .00000032  00000+0  45132-4 0  9998
2 56049  87.9300  31.4425 0001895  71.5057 288.6282 13.21766675 60365
ONEWEB-0548             
1 56050U 23043E   24159.37053427  .00000105  00000+0  24203-3 0  9999
2 56050  87.9108  16.0700 0001776 104.3758 255.7570 13.16594304 61615
ONEWEB-0549             
1 56051U 23043F   24159.38407197  .00000093  00000+0  19373-3 0  9996
2 56051  87.9300  31.2487 0001994  81.4125 278.7235 13.21826172 60491
ONEWEB-0550             
1 56052U 23043G   24159.37145323  .00000098  00000+0  20463-3 0  9993
2 56052  87.9295  31.2592 0001900  88.3183 271.8169 13.21826182 60490
ONEWEB-0551             
1 56053U 23043H   24158.43292240  .00000066  00000+0  14044-3 0  9994
2 56053  87.9051  46.6464 0002136  79.8655 280.2716 13.15549289 59000
ONEWEB-0552             
1 56054U 23043J   24159.36514417  .00000113  00000+0  24249-3 0  9992
2 56054  87.9294  31.2703 0002143  90.1156 270.0224 13.21824294 60491
ONEWEB-0553             
1 56055U 23043K   24159.57952134  .00000041  00000+0  73592-4 0  9994
2 56055  87.9108  16.0170 0001545  74.7165 285.4137 13.16593667 62562
ONEWEB-0554             
1 56056U 23043L   24159.33886337  .00000042  00000+0  75704-4 0  9998
2 56056  87.9110  16.0858 0001904 105.9457 254.1884 13.16592505 61605
